COSMOS 2425 (716)       
1 29670U 06062A   21127.19632883 -.00000047  00000-0  00000+0 0  9992
2 29670  64.8574 256.8410 0024008 347.0436 190.8606  2.13115430111785
COSMOS 2433 (720)       
1 32275U 07052A   21130.03699131 -.00000077  00000-0  00000+0 0  9996
2 32275  66.0535  18.0608 0001955 288.0692  84.7970  2.13104102105379
COSMOS 2432 (719)       
1 32276U 07052B   21130.15992603 -.00000077  00000-0  00000+0 0  9990
2 32276  66.0683  18.1515 0011044 336.1014  80.4646  2.13103564105379
COSMOS 2434 (721)       
1 32393U 07065A   21129.52417510 -.00000040  00000-0  00000-0 0  9993
2 32393  64.4725 255.2381 0003981  90.5916 137.1477  2.13103075104060
COSMOS 2436 (723)       
1 32395U 07065C   21129.62475159 -.00000039  00000-0  00000-0 0  9997
2 32395  64.4815 255.2875 0014942   5.0550  75.9591  2.13102997104006
COSMOS 2456 (730)       
1 36111U 09070A   21129.80137174  .00000080  00000-0  00000-0 0  9992
2 36111  64.2703 134.9082 0006211 303.4828 307.9644  2.13099246 88736
COSMOS 2457 (733)       
1 36112U 09070B   21129.66197612  .00000081  00000-0  00000-0 0  9991
2 36112  64.2527 134.7991 0004548 196.9622  71.6214  2.13101451 88736
COSMOS 2459 (731)       
1 36400U 10007A   21129.50483333 -.00000079  00000-0  00000-0 0  9992
2 36400  65.9536  17.0079 0026495 351.0180 190.4753  2.13108156 87075
COSMOS 2461 (735)       
1 36401U 10007B   21129.50535417 -.00000079  00000-0  00000-0 0  9994
2 36401  65.9482  16.9728 0021750   8.4174 174.5893  2.13103813 87084
COSMOS 2460 (732)       
1 36402U 10007C   21129.60881735 -.00000079  00000-0  00000+0 0  9992
2 36402  65.9352  16.9263 0001947  23.1166 183.6798  2.13106564 87087
COSMOS 2464 (736)       
1 37139U 10041C   21129.72821575 -.00000038  00000-0  00000-0 0  9993
2 37139  64.0725 254.5087 0027925  13.0224 232.4594  2.13100744 83144
COSMOS 2471 (701K)      
1 37372U 11009A   21130.16285889 -.00000076  00000-0  00000+0 0  9990
2 37372  65.9299  16.8463 0013242 228.9124 200.3849  2.13081248 79373
COSMOS 2476 (744)       
1 37867U 11064A   21129.82503087  .00000082  00000-0  00000-0 0  9991
2 37867  64.5654 136.1052 0022368 241.9725 289.6590  2.13101891 74086
COSMOS 2477 (745)       
1 37868U 11064B   21129.40401390  .00000085  00000-0  00000-0 0  9993
2 37868  64.5738 136.1805 0019855 243.4145 143.5601  2.13101719 74031
COSMOS 2475 (743)       
1 37869U 11064C   21129.79898436  .00000082  00000-0  00000-0 0  9994
2 37869  64.5808 136.1710 0024274 260.8924  26.7362  2.13101946 74043
COSMOS 2485 (747)       
1 39155U 13019A   21130.11432566  .00000080  00000-0  00000+0 0  9999
2 39155  64.7316 136.4362 0022683 237.8242 200.2141  2.13101905 62567
COSMOS 2492 (754)       
1 39620U 14012A   21129.89467280 -.00000078  00000-0  00000-0 0  9993
2 39620  65.8238  16.6543 0014143 331.1511 333.2267  2.13103181 55508
COSMOS 2500 (755)       
1 40001U 14032A   21130.24813427 -.00000076  00000-0  00000+0 0  9996
2 40001  65.7614  16.5348 0004379 199.6589 235.6209  2.13102560 53738
COSMOS 2501 (702K)      
1 40315U 14075A   21129.55730233 -.00000040  00000-0  00000-0 0  9998
2 40315  63.7847 255.3357 0016535 207.1976 224.2952  2.13101397 50123
COSMOS 2514 (751)       
1 41330U 16008A   21130.17865323 -.00000077  00000-0  00000+0 0  9992
2 41330  65.5660  16.3274 0008199 216.8740 348.1675  2.13102930 40895
COSMOS 2516 (753)       
1 41554U 16032A   21129.68701034 -.00000039  00000-0  00000-0 0  9998
2 41554  64.0100 255.4932 0012792 212.8487 229.3756  2.13106832 38499
COSMOS 2522 (752)       
1 42939U 17055A   21129.59258096 -.00000040  00000-0  00000-0 0  9999
2 42939  64.2417 255.7726 0006323 242.3640 351.2259  2.13101901 28243
COSMOS 2527 (756)       
1 43508U 18053A   21130.25481775  .00000079  00000-0  00000+0 0  9998
2 43508  64.8965 136.3483 0009421 243.2356 170.4681  2.13102589 22551
COSMOS 2529 (757)       
1 43687U 18086A   21129.65720395 -.00000039  00000-0  00000-0 0  9996
2 43687  64.4564 255.9793 0008362 271.5103 327.2136  2.13102119 19551
COSMOS 2534 (758)       
1 44299U 19030A   21129.59242692 -.00000039  00000-0  00000-0 0  9998
2 44299  64.5297 255.8272 0011431 291.5277  32.3514  2.13101986 15192
COSMOS 2544 (759)       
1 44850U 19088A   21129.89762568  .00000082  00000-0  00000-0 0  9993
2 44850  64.8802 136.2196 0014211 266.2789 277.1949  2.13102367 10980
COSMOS 2545 (760)       
1 45358U 20018A   21129.83590817 -.00000080  00000-0  00000-0 0  9991
2 45358  64.8986  17.2803 0007420 259.1723  87.0028  2.13102681  8929
